{
    "links": {
        "self": "http://www.neowsapp.com/rest/v1/neo/3843700?api_key=iIulBulltgU6a56xZRHN4H3l9WmuAYTsLGpBGhQ2"
    },
    "id": "3843700",
    "neo_reference_id": "3843700",
    "name": "(2019 QC6)",
    "designation": "2019 QC6",
    "nasa_jpl_url": "http://ssd.jpl.nasa.gov/sbdb.cgi?sstr=3843700",
    "absolute_magnitude_h": 23.7,
    "estimated_diameter": {
        "kilometers": {
            "estimated_diameter_min": 0.0483676488,
            "estimated_diameter_max": 0.1081533507
        },
        "meters": {
            "estimated_diameter_min": 48.3676488219,
            "estimated_diameter_max": 108.1533506775
        },
        "miles": {
            "estimated_diameter_min": 0.0300542543,
            "estimated_diameter_max": 0.0672033557
        },
        "feet": {
            "estimated_diameter_min": 158.6865169607,
            "estimated_diameter_max": 354.8338390368
        }
    },
    "is_potentially_hazardous_asteroid": false,
    "close_approach_data": [
        {
            "close_approach_date": "2019-09-04",
            "close_approach_date_full": "2019-Sep-04 21:32",
            "epoch_date_close_approach": 1567632720000,
            "relative_velocity": {
                "kilometers_per_second": "14.2417439699",
                "kilometers_per_hour": "51270.2782914852",
                "miles_per_hour": "31857.3570861731"
            },
            "miss_distance": {
                "astronomical": "0.0929605917",
                "lunar": "36.1616701713",
                "kilometers": "13906706.512259679",
                "miles": "8641226.7277104102"
            },
            "orbiting_body": "Earth"
        },
        {
            "close_approach_date": "2020-01-04",
            "close_approach_date_full": "2020-Jan-04 08:14",
            "epoch_date_close_approach": 1578125640000,
            "relative_velocity": {
                "kilometers_per_second": "7.9548472309",
                "kilometers_per_hour": "28637.4500312351",
                "miles_per_hour": "17794.1977707971"
            },
            "miss_distance": {
                "astronomical": "0.4839477029",
                "lunar": "188.2556564281",
                "kilometers": "72397545.545232823",
                "miles": "44985748.7849180374"
            },
            "orbiting_body": "Earth"
        }
    ],
    "orbital_data": {
        "orbit_id": "3",
        "orbit_determination_date": "2019-09-15 06:12:31",
        "first_observation_date": "2019-08-21",
        "last_observation_date": "2019-09-05",
        "data_arc_in_days": 15,
        "observations_used": 32,
        "orbit_uncertainty": "8",
        "minimum_orbit_intersection": ".0896209",
        "jupiter_tisserand_invariant": "3.798",
        "epoch_osculation": "2458721.5",
        "eccentricity": ".490827935424801",
        "semi_major_axis": "1.85105403345421",
        "inclination": "18.20758556860268",
        "ascending_node_longitude": "332.7108572564861",
        "orbital_period": "919.8713046688765",
        "perihelion_distance": ".9425050038541294",
        "perihelion_argument": "61.88815247570416",
        "aphelion_distance": "2.75960306305429",
        "perihelion_time": "2458773.689109222425",
        "mean_anomaly": "339.5753175202741",
        "mean_motion": ".3913590935740605",
        "equinox": "J2000",
        "orbit_class": {
            "orbit_class_type": "APO",
            "orbit_class_description": "Near-Earth asteroid orbits which cross the Earth’s orbit similar to that of 1862 Apollo",
            "orbit_class_range": "a (semi-major axis) > 1.0 AU; q (perihelion) < 1.017 AU"
        }
    },
    "is_sentry_object": false
}